{"fetched_at":"2026-06-14T08:17:21Z","count":15259,"tles":[{"name":"COSMOS 2564 [GLONASS-M]","line1":"1 54377U 22161A   26164.01779421  .00000118  00000+0  00000+0 0  9996","line2":"2 54377  64.7413 192.8502 0012141 224.5907 135.3886  2.13101986 27541","category":"GPS"},{"name":"NAVSTAR 81 (USA 319)","line1":"1 48859U 21054A   26163.98775440 -.00000073  00000+0  00000+0 0  9997","line2":"2 48859  55.1767 332.6286 0025310 228.5784 107.5596  2.00569035 36668","category":"GPS"},{"name":"BEIDOU-3 IGSO-3","line1":"1 44709U 19073A   26136.81046384 -.00000217  00000+0  00000+0 0  9995","line2":"2 44709  54.8566 281.2355 0042953 189.4588 170.3676  1.00246251 24144","category":"GPS"},{"name":"BEIDOU-3 IGSO-2","line1":"1 44337U 19035A   26164.59235787 -.00000057  00000+0  00000+0 0  9995","line2":"2 44337  55.2457 158.8942 0039933 216.5217 219.5102  1.00267282 25633","category":"GPS"},{"name":"BEIDOU-3 G2","line1":"1 45344U 20017A   26164.63517778 -.00000132  00000+0  00000+0 0  9998","line2":"2 45344   2.8559  47.2829 0002148  32.1520 131.2494  1.00272457 23222","category":"GPS"},{"name":"GPS BIII-2","line1":"1 44506U 19056A   26163.66035003 -.00000070  00000+0  00000+0 0  9997","line2":"2 44506  55.6395 331.3227 0061867 197.5828 161.1492  2.00569410 49973","category":"GPS"},{"name":"BEIDOU-2 G8","line1":"1 44231U 19027A   26164.57666691 -.00000237  00000+0  00000+0 0  9999","line2":"2 44231   1.6475  74.5026 0010276 282.3554 257.1766  1.00272036 26045","category":"GPS"},{"name":"BEIDOU-3 M22","line1":"1 44793U 19078A   26163.78655953 -.00000068  00000+0  00000+0 0  9991","line2":"2 44793  53.9404 299.9835 0006451  50.2403 309.7998  1.86227380 44560","category":"GPS"},{"name":"COSMOS 2545 [GLONASS-M]","line1":"1 45358U 20018A   26164.00102648 -.00000051  00000+0  00000+0 0  9991","line2":"2 45358  64.3580 312.5664 0008188 230.8878 129.0260  2.13102608 48578","category":"GPS"},{"name":"EUTELSAT 5 WEST B","line1":"1 44624U 19067A   26164.61832483 -.00000031  00000+0  00000+0 0  9990","line2":"2 44624   0.0625 358.4049 0002897  83.1786  37.9638  1.00271929 24404","category":"Other"},{"name":"BEIDOU-3 M21","line1":"1 44794U 19078B   26164.46345251 -.00000068  00000+0  00000+0 0  9995","line2":"2 44794  53.9128 299.9208 0004278  48.5109 311.5090  1.86227756 44589","category":"GPS"},{"name":"NVS-01 (IRNSS-1J)","line1":"1 56759U 23076A   26164.64499600 -.00000323  00000+0  00000+0 0  9994","line2":"2 56759   2.1747 244.5154 0003175  37.0008 342.1620  1.00266371 11088","category":"Other"},{"name":"COSMOS 2547","line1":"1 46805U 20075A   26163.72129992  .00000119  00000+0  00000+0 0  9995","line2":"2 46805  64.5993 192.6246 0009245 239.6069 120.3788  2.13100258 43813","category":"Other"},{"name":"GPS BIII-3","line1":"1 45854U 20041A   26162.56161249 -.00000063  00000+0  00000+0 0  9992","line2":"2 45854  56.6657  29.1622 0063604 204.6361  19.3768  2.00558626 43922","category":"GPS"},{"name":"BEIDOU-3 G4","line1":"1 56564U 23066A   26164.64698648 -.00000270  00000+0  00000+0 0  9991","line2":"2 56564   0.4909 330.4881 0004310 181.9757 122.4029  1.00274874 11356","category":"GPS"},{"name":"GPS BIII-4","line1":"1 46826U 20078A   26164.31236422  .00000089  00000+0  00000+0 0  9990","line2":"2 46826  53.9802 210.9360 0073434 207.1619 177.1494  2.00564726 41430","category":"GPS"},{"name":"COSMOS 2569 (703K)","line1":"1 57517U 23114A   26164.03009862 -.00000032  00000+0  00000+0 0  9997","line2":"2 57517  65.2998  72.7606 0010818 296.8248  63.0846  2.13103647 22177","category":"Other"},{"name":"BEIDOU-3 M20","line1":"1 44865U 19090B   26164.31062742 -.00000055  00000+0  00000+0 0  9999","line2":"2 44865  56.5565  62.9542 0015746 311.9209 232.5278  1.86231453 44142","category":"GPS"},{"name":"GALAXY 30 (G-30)","line1":"1 46114U 20056C   26164.59454126  .00000048  00000+0  00000+0 0  9994","line2":"2 46114   0.0179   0.2114 0002059  88.0552 262.6765  1.00270191 21252","category":"Other"},{"name":"GSAT0224 (GALILEO 28)","line1":"1 49810U 21116B   26162.53111727 -.00000066  00000+0  00000+0 0  9998","line2":"2 49810  57.1633 341.8270 0000988 155.4898 205.7028  1.70475859 28111","category":"GPS"}]}